STARLINK-32466          
1 61859U 24202Q   26068.46838647  .00000106  00000+0  13396-4 0  9999
2 61859  43.0012 239.2537 0002000 284.1644  75.8985 15.27579013 75300
HERMES-3                
1 63835U 25052BR  26068.93751242  .00020316  00000+0  69958-3 0  9995
2 63835  97.3987 324.6131 0007993 112.9583 247.2502 15.30039785 54863
